[{"OBJECT_NAME":"STARLINK-5908","OBJECT_ID":"2023-037AP","EPOCH":"2026-03-09T22:47:23.418240","MEAN_MOTION":14.98333189,"ECCENTRICITY":0.00028195,"INCLINATION":69.9985,"RA_OF_ASC_NODE":283.6163,"ARG_OF_PERICENTER":270.8279,"MEAN_ANOMALY":89.2557,"EPHEMERIS_TYPE":0,"CLASSIFICATION_TYPE":"U","NORAD_CAT_ID":55951,"ELEMENT_SET_NO":999,"REV_AT_EPOCH":16402,"BSTAR":-4.797258e-6,"MEAN_MOTION_DOT":-1.5e-6,"MEAN_MOTION_DDOT":0},{"OBJECT_NAME":"PSLV R\/B","OBJECT_ID":"2007-001E","EPOCH":"2026-03-09T22:10:17.317056","MEAN_MOTION":14.97920804,"ECCENTRICITY":0.00208593,"INCLINATION":98.0304,"RA_OF_ASC_NODE":98.4358,"ARG_OF_PERICENTER":74.2404,"MEAN_ANOMALY":286.1116,"EPHEMERIS_TYPE":0,"CLASSIFICATION_TYPE":"U","NORAD_CAT_ID":29713,"ELEMENT_SET_NO":999,"REV_AT_EPOCH":3805,"BSTAR":0.00025269605,"MEAN_MOTION_DOT":2.927e-5,"MEAN_MOTION_DDOT":0}]
